SL-8 R/B                
1 19257U 88053B   26066.58037298  .00000344  00000+0  12006-3 0  9992
2 19257  74.0463 116.3549 0021402 295.9237 175.0046 14.38914426976293
COSMOS 1975             
1 19573U 88093A   26066.62930093  .00010153  00000+0  36939-3 0  9997
2 19573  82.5182 119.7534 0011932 170.4114 189.7356 15.28034297 19096
SL-14 R/B               
1 19574U 88093B   26066.44991435  .00000866  00000+0  96755-4 0  9998
2 19574  82.5301  44.1463 0021899  48.5281  67.5482 14.85653721   684
SL-16 R/B               
1 19650U 88102B   26066.64461154  .00000258  00000+0  15456-3 0  9999
2 19650  71.0001 155.8003 0013818   4.8008 355.3245 14.16150772926609
INTERCOSMOS 24          
1 20261U 89080A   26066.57852605  .00000972  00000+0  28932-3 0  9998
2 20261  82.6029 105.7792 1186735 297.7253  50.8395 12.59554373666537
SL-14 R/B               
1 20262U 89080C   26066.63534907  .00000899  00000+0  26710-3 0  9998
2 20262  82.5973 174.5046 1230495 189.4430 168.1459 12.50491104659896
DELTA 1 R/B             
1 20323U 89089B   26066.55155294  .00000468  00000+0  12406-3 0  9993
2 20323  97.0707 274.3303 0070340 128.6437 232.1085 14.50661124895428
ARIANE 40 R/B           
1 20443U 90005H   26066.58981454  .00000380  00000+0  13428-3 0  9992
2 20443  98.3088 127.3139 0009713 204.8599 155.2123 14.39868992892506
DELTA 2 R/B(1)          
1 20453U 90008B   26066.38538323  .00085457  00000+0  10086-2 0  9991
2 20453  35.6042 189.9737 0085932 237.5116 121.7291 15.55634124925771
COSMOS 2058             
1 20465U 90010A   26066.46322850  .00006208  00000+0  36677-3 0  9994
2 20465  82.4671  49.6214 0009564 351.1659   8.9401 15.11298259941905
SL-14 R/B               
1 20466U 90010B   26066.59605301  .00000556  00000+0  64554-4 0  9990
2 20466  82.4988 269.3560 0018666 309.7077  50.2491 14.83566901928171
SL-14 R/B               
1 20511U 90018B   26066.61188487  .00000751  00000+0  91205-4 0  9993
2 20511  82.5199 225.0318 0017646  98.3320 261.9896 14.82142477922278
HST                     
1 20580U 90037B   26066.07173350  .00008800  00000+0  29166-3 0  9992
2 20580  28.4710  57.8566 0001811 100.2256 259.8544 15.29432289772911
SL-16 R/B               
1 20625U 90046B   26066.64712747 -.00000244  00000+0 -10135-3 0  9996
2 20625  70.9991 302.2047 0016212 302.3506  57.6046 14.15013177848100
COSMOS 2084             
1 20663U 90055A   26066.19819983  .00003799  00000+0  27495-3 0  9991
2 20663  62.7924 344.0754 0017441 189.3301 170.7478 15.05633843935940
SL-6 R/B(2)             
1 20666U 90055D   26066.64297367  .00002829  00000+0  21929-3 0  9999
2 20666  62.7823 260.8111 0024358 346.5140  13.5305 15.03583164937882
SL-8 R/B                
1 20775U 90078B   26066.55969413  .00019315  00000+0  56860-3 0  9993
2 20775  82.9000 253.2268 0362755  21.1646 340.4147 14.88972174808985
